IRIDIUM 171             
1 43929U 19002H   24102.89322531  .00000167  00000+0  52510-4 0  9991
2 43929  86.3975 326.5976 0002090  82.4888 277.6545 14.34219905274821
IRIDIUM 170             
1 43930U 19002J   24102.58366485  .00001095  00000+0  16970-3 0  9995
2 43930  86.6094 326.5582 0002253  93.7251 266.4223 14.72270321282055
IRIDIUM 167             
1 43931U 19002K   24102.88688491  .00000136  00000+0  41556-4 0  9997
2 43931  86.3965 326.3975 0002055  84.5441 275.5989 14.34217194274826
IRIDIUM 181             
1 56726U 23068S   24102.49402454  .00000518  00000+0  14716-3 0  9991
2 56726  86.8693  17.0203 0002256  78.9940 281.1515 14.43565094 47514
IRIDIUM 177             
1 56727U 23068T   24102.43472128  .00001309  00000+0  16871-3 0  9994
2 56727  86.2007 347.0631 0002276  84.7957 275.3523 14.80242698 48501
IRIDIUM 174             
1 56728U 23068U   24102.42932377  .00001354  00000+0  17466-3 0  9992
2 56728  86.2015 347.1641 0002580  87.9386 272.2130 14.80242093 48501
IRIDIUM 178             
1 56729U 23068V   24102.42398839  .00001589  00000+0  20569-3 0  9990
2 56729  86.5832   1.4556 0002643  93.2032 266.9492 14.80239146 48501
IRIDIUM 179             
1 56730U 23068W   24102.48616264  .00001716  00000+0  22241-3 0  9994
2 56730  86.6845   4.7201 0002614  91.5308 268.6214 14.80241800 48518
